[{"OBJECT_NAME":"STARLINK-31578","OBJECT_ID":"2024-057B","EPOCH":"2026-03-08T15:21:37.066176","MEAN_MOTION":15.27576516,"ECCENTRICITY":9.437e-5,"INCLINATION":42.9986,"RA_OF_ASC_NODE":192.5598,"ARG_OF_PERICENTER":263.492,"MEAN_ANOMALY":96.5824,"EPHEMERIS_TYPE":0,"CLASSIFICATION_TYPE":"U","NORAD_CAT_ID":59321,"ELEMENT_SET_NO":999,"REV_AT_EPOCH":10968,"BSTAR":2.3922819e-5,"MEAN_MOTION_DOT":3.96e-6,"MEAN_MOTION_DDOT":0},{"OBJECT_NAME":"TEVEL2-3","OBJECT_ID":"2025-052J","EPOCH":"2026-03-09T15:29:22.754400","MEAN_MOTION":15.30377031,"ECCENTRICITY":0.0004761,"INCLINATION":97.3994,"RA_OF_ASC_NODE":324.7775,"ARG_OF_PERICENTER":105.7353,"MEAN_ANOMALY":254.4413,"EPHEMERIS_TYPE":0,"CLASSIFICATION_TYPE":"U","NORAD_CAT_ID":63218,"ELEMENT_SET_NO":999,"REV_AT_EPOCH":5485,"BSTAR":0.00069446,"MEAN_MOTION_DOT":0.00020365,"MEAN_MOTION_DDOT":0}]
